HAWK-12A                
1 64623U 25138C   26203.95969435  .00004137  00000+0  20367-3 0  9998
2 64623  97.4421 206.1545 0014358  21.3078 338.8751 15.18446935 59291
HAWK-13A                
1 67392U 26004AF  26203.69450679  .00003761  00000+0  18086-3 0  9990
2 67392  97.4455 202.0636 0004914 188.9338 171.1810 15.19399999 29150
HAWK-13C                
1 67393U 26004AG  26203.95780237  .00004181  00000+0  20070-3 0  9999
2 67393  97.4600 202.7622 0004754 190.9417 169.1715 15.19399884 29196
HAWK-13B                
1 67396U 26004AK  26203.69427378  .00003765  00000+0  18105-3 0  9990
2 67396  97.4540 202.3192 0005978 194.1562 165.9506 15.19398704 29154
HAWK-14B                
1 68436U 26067W   26204.32993437  .00003959  00000+0  19537-3 0  9995
2 68436  97.4565 162.2693 0000726 310.2545  49.8626 15.18478725 17426
HAWK-14C                
1 68441U 26067AB  26203.86876327  .00004092  00000+0  20181-3 0  9993
2 68441  97.4501 161.6884 0001760   2.3284 357.7958 15.18473713 17358
HAWK-14A                
1 68448U 26067AJ  26204.13245396  .00004174  00000+0  20576-3 0  9996
2 68448  97.4628 162.2071 0002397 348.1889  11.9288 15.18479655 17399
